ONEWEB-0320             
1 49190U 21083E   24118.53257044  .00004330  00000+0  10949-1 0  9996
2 49190  87.9126 130.8678 0002083  96.9163 263.2206 13.18665864128378
ONEWEB-0321             
1 49191U 21083F   24118.60297203 -.00000035  00000+0 -11851-3 0  9991
2 49191  87.9193  69.7532 0001935  91.5454 268.5901 13.20772717133792
ONEWEB-0322             
1 49192U 21083G   24118.48678486 -.00000167  00000+0 -49127-3 0  9997
2 49192  87.8895 115.6511 0002101 103.1778 256.9586 13.13470111128434
ONEWEB-0324             
1 49193U 21083H   24118.51833821  .00000104  00000+0  22995-3 0  9991
2 49193  87.9126 130.8532 0002348  89.4330 270.7072 13.18679969127113
ONEWEB-0325             
1 49194U 21083J   24118.59897566  .00000073  00000+0  15123-3 0  9996
2 49194  87.9126 130.8504 0002021  93.6268 266.5095 13.18689565127131
ONEWEB-0326             
1 49195U 21083K   24118.53732717  .00000130  00000+0  29691-3 0  9996
2 49195  87.9123 130.8625 0002175  75.0316 285.1057 13.18685032127119
ONEWEB-0327             
1 49196U 21083L   24118.58710385  .00000023  00000+0  25349-4 0  9997
2 49196  87.9126 130.8646 0002006  78.9569 281.1789 13.18688091127140
ONEWEB-0328             
1 49197U 21083M   24118.47726129 -.00000206  00000+0 -59902-3 0  9995
2 49197  87.8884 115.6429 0002104  86.8408 273.2961 13.13469923128411
